     2.100          NAVIGATION                              RINEX VERSION / TYPE
fic2rin                                 11/16/2008 02:05:09 PGM / RUN BY / DATE
                                                            END OF HEADER
23 08 11 15 16  0  0.0  .380067620426D-03  .113686837722D-11  .000000000000D+00
     .310000000000D+02  .537500000000D+01  .442589864216D-08  .156515998578D+01
     .417232513428D-06  .581276766025D-02 -.400468707085D-06  .515367585945D+04
     .576000000000D+06  .353902578354D-07 -.107371839856D+01  .968575477600D-07
     .970881435486D+00  .390656250000D+03  .287732096008D+01 -.834463330176D-08
    -.957182727646D-10  .100000000000D+01  .150500000000D+04  .000000000000D+00
     .240000000000D+01  .000000000000D+00 -.200234353542D-07  .310000000000D+02
     .568806000000D+06  .400000000000D+01
24 08 11 15 16  0  0.0  .141238328069D-03  .295585778076D-11  .000000000000D+00
     .620000000000D+02  .351875000000D+02  .458019078333D-08 -.230189418512D+01
     .171922147274D-05  .729202723596D-02  .110138207674D-04  .515366241646D+04
     .576000000000D+06 -.156462192535D-06 -.312200577509D+01  .670552253723D-07
     .952219918502D+00  .163468750000D+03 -.671364660256D+00 -.777960976626D-08
    -.758603027432D-09  .100000000000D+01  .150500000000D+04  .000000000000D+00
     .240000000000D+01  .000000000000D+00 -.139698386192D-08  .620000000000D+02
     .568806000000D+06  .400000000000D+01
25 08 11 15 16  0  0.0  .259983353317D-04  .303543856717D-10  .000000000000D+00
     .450000000000D+02 -.145281250000D+03  .419303179946D-08 -.177634156149D+01
    -.732950866222D-05  .116556081921D-01  .686943531036D-05  .515369268799D+04
     .576000000000D+06 -.109896063805D-06 -.125852097925D+00  .303611159325D-06
     .967509447349D+00  .248031250000D+03 -.124973394864D+01 -.793747348477D-08
    -.137148569931D-09  .100000000000D+01  .150500000000D+04  .000000000000D+00
     .340000000000D+01  .000000000000D+00 -.745058059692D-08  .450000000000D+02
     .568806000000D+06  .400000000000D+01
26 08 11 15 16  0  0.0  .155735760927D-04  .443378667114D-11  .000000000000D+00
     .410000000000D+02 -.625000000000D-01  .414231540121D-08  .111881552256D+01
    -.115483999252D-06  .192625755444D-01 -.253319740295D-06  .515363492012D+04
     .576000000000D+06 -.277534127235D-06 -.102809056737D+01  .763684511185D-07
     .993086614044D+00  .406343750000D+03  .959977361996D+00 -.852392648432D-08
    -.195365280605D-09  .100000000000D+01  .150500000000D+04  .000000000000D+00
     .240000000000D+01  .000000000000D+00 -.605359673500D-08  .410000000000D+02
     .568806000000D+06  .400000000000D+01
27 08 11 15 16  0  0.0  .227708369493D-06  .284217094304D-11  .000000000000D+00
     .100000000000D+03 -.137875000000D+03  .401695303650D-08 -.183388300838D+01
    -.687502324581D-05  .213849589927D-01  .684708356857D-05  .515370652580D+04
     .576000000000D+06  .357627868652D-06 -.904327124397D-01  .318512320518D-06
     .972150247743D+00  .243531250000D+03 -.167436789710D+01 -.765531887476D-08
    -.814319633967D-10  .100000000000D+01  .150500000000D+04  .000000000000D+00
     .240000000000D+01  .000000000000D+00 -.419095158577D-08  .100000000000D+03
     .568806000000D+06  .400000000000D+01
28 08 11 15 16  0  0.0 -.235317274928D-04 -.113686837722D-12  .000000000000D+00
     .860000000000D+02 -.280000000000D+02  .422589031101D-08 -.300521510000D+01
    -.158697366714D-05  .141700650565D-01  .109840184450D-04  .515363839340D+04
     .576000000000D+06  .651925802231D-07  .104424067679D+01 -.141561031342D-06
     .964826606272D+00  .167750000000D+03 -.208535798691D+01 -.745388191267D-08
     .764317551180D-09  .100000000000D+01  .150500000000D+04  .000000000000D+00
     .340000000000D+01  .000000000000D+00 -.102445483208D-07  .860000000000D+02
     .568806000000D+06  .400000000000D+01
29 08 11 15 16  0  0.0 -.298833474517D-04  .170530256582D-11  .000000000000D+00
     .680000000000D+02 -.568750000000D+01  .505271046567D-08 -.842387661536D+00
    -.288709998131D-06  .328061578330D-02  .573694705963D-05  .515378409767D+04
     .576000000000D+06 -.596046447754D-07  .208596832950D+01 -.633299350739D-07
     .959403845444D+00  .266843750000D+03 -.134061414578D+01 -.816712590786D-08
     .892894335490D-11  .100000000000D+01  .150500000000D+04  .000000000000D+00
     .240000000000D+01  .000000000000D+00 -.884756445885D-08  .680000000000D+02
     .568806000000D+06  .400000000000D+01
30 08 11 15 16  0  0.0  .108029693365D-03  .227373675443D-11  .000000000000D+00
     .130000000000D+02 -.447500000000D+02  .459197698856D-08 -.259115192987D+01
    -.231340527534D-05  .111808212241D-01  .104345381260D-04  .515367340851D+04
     .576000000000D+06  .182539224625D-06  .974519526959D+00  .670552253723D-07
     .950054407682D+00  .170500000000D+03  .141333050335D+01 -.768067707389D-08
     .737887878849D-09  .100000000000D+01  .150500000000D+04  .000000000000D+00
     .240000000000D+01  .000000000000D+00 -.791624188423D-08  .130000000000D+02
     .568806000000D+06  .400000000000D+01
31 08 11 15 16  0  0.0 -.386373139918D-04 -.227373675443D-11  .000000000000D+00
     .400000000000D+02 -.138468750000D+03  .413231498465D-08 -.937763389838D-01
    -.741146504879D-05  .687851337716D-02  .670924782753D-05  .515358229065D+04
     .576000000000D+06 -.119209289551D-06 -.340706042746D-01 -.109896063805D-06
     .970579729113D+00  .255312500000D+03 -.123412292306D+01 -.799711882638D-08
    -.617882880159D-10  .100000000000D+01  .150500000000D+04  .000000000000D+00
     .240000000000D+01  .000000000000D+00 -.130385160446D-07  .400000000000D+02
     .568806000000D+06  .400000000000D+01
32 08 11 15 16  0  0.0  .313886906952D-03 -.125055521494D-11  .000000000000D+00
     .880000000000D+02  .132406250000D+03  .430375069706D-08  .811481199849D+00
     .669062137604D-05  .139125272399D-01  .672973692417D-05  .515371512985D+04
     .576000000000D+06 -.102445483208D-06 -.204091322489D+01 -.223517417908D-06
     .966744191976D+00  .257218750000D+03 -.125131733510D+01 -.820569894316D-08
     .528593446610D-10  .100000000000D+01  .150500000000D+04  .000000000000D+00
     .340000000000D+01  .000000000000D+00 -.325962901115D-08  .880000000000D+02
     .568806000000D+06  .400000000000D+01
20 08 11 15 15 59 44.0  .990075059235D-04 -.102318153949D-11  .000000000000D+00
     .400000000000D+01  .141812500000D+03  .458233372974D-08 -.207346470285D+01
     .740587711334D-05  .361668982077D-02  .731088221073D-05  .515374507141D+04
     .575984000000D+06  .856816768646D-07 -.214641945316D+01 -.167638063431D-07
     .944864274235D+00  .232500000000D+03  .133111225147D+01 -.806176437627D-08
     .117862052285D-10  .100000000000D+01  .150500000000D+04  .000000000000D+00
     .240000000000D+01  .000000000000D+00 -.651925802231D-08  .400000000000D+01
     .572046000000D+06  .400000000000D+01
20 08 11 15 17 59 44.0  .989995896816D-04 -.102318153949D-11  .000000000000D+00
     .500000000000D+01  .140375000000D+03  .473984029052D-08 -.102371737712D+01
     .728107988834D-05  .361622683704D-02  .778771936893D-05  .515374238777D+04
     .583184000000D+06 -.186264514923D-07 -.214647777824D+01  .800937414169D-07
     .944863653958D+00  .220468750000D+03  .133150334799D+01 -.819784147300D-08
    -.153577825704D-10  .100000000000D+01  .150500000000D+04  .000000000000D+00
     .240000000000D+01  .000000000000D+00 -.651925802231D-08  .500000000000D+01
     .576006000000D+06  .400000000000D+01
 1 08 11 15 18  0  0.0 -.893799588084D-04 -.460431692773D-10  .000000000000D+00
     .140000000000D+03 -.396875000000D+01  .571023785433D-08  .151361102877D+00
    -.147148966789D-06  .980002805591D-02  .563822686672D-05  .515377324867D+04
     .583200000000D+06 -.122934579849D-06  .199484442192D+01 -.614672899246D-07
     .934871382197D+00  .260718750000D+03 -.150133898498D+01 -.860678707866D-08
     .148577617426D-09  .100000000000D+01  .150500000000D+04  .000000000000D+00
     .240000000000D+01  .630000000000D+02 -.232830643654D-08  .140000000000D+03
     .576006000000D+06  .400000000000D+01
 2 08 11 15 18  0  0.0  .173002015799D-03 -.250111042988D-11  .000000000000D+00
     .300000000000D+02  .279375000000D+02  .482555814672D-08  .283346434525D+01
     .149011611938D-05  .881432578899D-02  .102892518044D-04  .515357853508D+04
     .583200000000D+06 -.633299350739D-07  .309925474230D+01  .188127160072D-06
     .942751614257D+00  .170468750000D+03  .267417449556D+01 -.785139847083D-08
    -.635740766869D-09  .100000000000D+01  .150500000000D+04  .000000000000D+00
     .240000000000D+01  .000000000000D+00 -.172294676304D-07  .300000000000D+02
     .576006000000D+06  .400000000000D+01
 3 08 11 15 18  0  0.0  .311513431370D-03  .522959453519D-11  .000000000000D+00
     .128000000000D+03  .134375000000D+01  .573916763080D-08  .252422496234D+01
    -.242143869400D-07  .114562677918D-01  .568665564060D-05  .515370199776D+04
     .583200000000D+06 -.223517417908D-07  .195374632931D+01 -.223517417908D-06
     .925606313847D+00  .251062500000D+03  .874740571770D+00 -.829820279631D-08
     .234652631367D-09  .100000000000D+01  .150500000000D+04  .000000000000D+00
     .240000000000D+01  .000000000000D+00 -.419095158577D-08  .128000000000D+03
     .576006000000D+06  .400000000000D+01
 4 08 11 15 18  0  0.0 -.233373139054D-03 -.122781784739D-10  .000000000000D+00
     .830000000000D+02  .237500000000D+02  .487841749138D-08 -.581063948377D+00
     .126659870148D-05  .849988590926D-02  .981800258160D-05  .515362009811D+04
     .583200000000D+06  .158324837685D-06  .311786631672D+01  .139698386192D-06
     .942022924522D+00  .179906250000D+03  .432212150845D+00 -.808212236712D-08
    -.634312135932D-09  .100000000000D+01  .150500000000D+04  .000000000000D+00
     .240000000000D+01  .000000000000D+00 -.605359673500D-08  .830000000000D+02
     .576006000000D+06  .400000000000D+01
